<?xml version="1.0" encoding="UTF-8"?>
<ndm xmlns:xsi="http://www.w3.org/2001/XMLSchema-instance" xsi:noNamespaceSchemaLocation="https://sanaregistry.org/r/ndmxml_unqualified/ndmxml-2.0.0-master-2.0.xsd">
<omm id="CCSDS_OMM_VERS" version="2.0">
<header><CREATION_DATE/><ORIGINATOR/></header><body><segment><metadata><OBJECT_NAME>ORBCOMM FM05</OBJECT_NAME><OBJECT_ID>1997-084F</OBJECT_ID><CENTER_NAME>EARTH</CENTER_NAME><REF_FRAME>TEME</REF_FRAME><TIME_SYSTEM>UTC</TIME_SYSTEM><MEAN_ELEMENT_THEORY>SGP4</MEAN_ELEMENT_THEORY></metadata><data><meanElements><EPOCH>2025-12-01T14:13:29.466624</EPOCH><MEAN_MOTION>14.46637772</MEAN_MOTION><ECCENTRICITY>.00040027</ECCENTRICITY><INCLINATION>45.0145</INCLINATION><RA_OF_ASC_NODE>283.9065</RA_OF_ASC_NODE><ARG_OF_PERICENTER>330.2303</ARG_OF_PERICENTER><MEAN_ANOMALY>29.8321</MEAN_ANOMALY></meanElements><tleParameters><EPHEMERIS_TYPE>0</EPHEMERIS_TYPE><CLASSIFICATION_TYPE>U</CLASSIFICATION_TYPE><NORAD_CAT_ID>25117</NORAD_CAT_ID><ELEMENT_SET_NO>999</ELEMENT_SET_NO><REV_AT_EPOCH>46484</REV_AT_EPOCH><BSTAR>.57033134E-3</BSTAR><MEAN_MOTION_DOT>.1934E-4</MEAN_MOTION_DOT><MEAN_MOTION_DDOT>0</MEAN_MOTION_DDOT></tleParameters></data></segment></body></omm>
<omm id="CCSDS_OMM_VERS" version="2.0">
<header><CREATION_DATE/><ORIGINATOR/></header><body><segment><metadata><OBJECT_NAME>ORBCOMM FM06</OBJECT_NAME><OBJECT_ID>1997-084G</OBJECT_ID><CENTER_NAME>EARTH</CENTER_NAME><REF_FRAME>TEME</REF_FRAME><TIME_SYSTEM>UTC</TIME_SYSTEM><MEAN_ELEMENT_THEORY>SGP4</MEAN_ELEMENT_THEORY></metadata><data><meanElements><EPOCH>2025-12-01T14:24:25.064640</EPOCH><MEAN_MOTION>14.46798282</MEAN_MOTION><ECCENTRICITY>.00029426</ECCENTRICITY><INCLINATION>45.0138</INCLINATION><RA_OF_ASC_NODE>283.4087</RA_OF_ASC_NODE><ARG_OF_PERICENTER>326.0081</ARG_OF_PERICENTER><MEAN_ANOMALY>203.3853</MEAN_ANOMALY></meanElements><tleParameters><EPHEMERIS_TYPE>0</EPHEMERIS_TYPE><CLASSIFICATION_TYPE>U</CLASSIFICATION_TYPE><NORAD_CAT_ID>25118</NORAD_CAT_ID><ELEMENT_SET_NO>999</ELEMENT_SET_NO><REV_AT_EPOCH>46576</REV_AT_EPOCH><BSTAR>.61028738E-3</BSTAR><MEAN_MOTION_DOT>.2087E-4</MEAN_MOTION_DOT><MEAN_MOTION_DDOT>0</MEAN_MOTION_DDOT></tleParameters></data></segment></body></omm>
<omm id="CCSDS_OMM_VERS" version="2.0">
<header><CREATION_DATE/><ORIGINATOR/></header><body><segment><metadata><OBJECT_NAME>ORBCOMM FM07</OBJECT_NAME><OBJECT_ID>1997-084H</OBJECT_ID><CENTER_NAME>EARTH</CENTER_NAME><REF_FRAME>TEME</REF_FRAME><TIME_SYSTEM>UTC</TIME_SYSTEM><MEAN_ELEMENT_THEORY>SGP4</MEAN_ELEMENT_THEORY></metadata><data><meanElements><EPOCH>2025-12-01T05:38:24.113184</EPOCH><MEAN_MOTION>14.46808228</MEAN_MOTION><ECCENTRICITY>.0004869</ECCENTRICITY><INCLINATION>45.0133</INCLINATION><RA_OF_ASC_NODE>285.9167</RA_OF_ASC_NODE><ARG_OF_PERICENTER>327.6818</ARG_OF_PERICENTER><MEAN_ANOMALY>32.3735</MEAN_ANOMALY></meanElements><tleParameters><EPHEMERIS_TYPE>0</EPHEMERIS_TYPE><CLASSIFICATION_TYPE>U</CLASSIFICATION_TYPE><NORAD_CAT_ID>25119</NORAD_CAT_ID><ELEMENT_SET_NO>999</ELEMENT_SET_NO><REV_AT_EPOCH>46570</REV_AT_EPOCH><BSTAR>.63724E-3</BSTAR><MEAN_MOTION_DOT>.2186E-4</MEAN_MOTION_DOT><MEAN_MOTION_DDOT>0</MEAN_MOTION_DDOT></tleParameters></data></segment></body></omm>
<omm id="CCSDS_OMM_VERS" version="2.0">
<header><CREATION_DATE/><ORIGINATOR/></header><body><segment><metadata><OBJECT_NAME>ORBCOMM FM04</OBJECT_NAME><OBJECT_ID>1998-007C</OBJECT_ID><CENTER_NAME>EARTH</CENTER_NAME><REF_FRAME>TEME</REF_FRAME><TIME_SYSTEM>UTC</TIME_SYSTEM><MEAN_ELEMENT_THEORY>SGP4</MEAN_ELEMENT_THEORY></metadata><data><meanElements><EPOCH>2025-12-01T16:45:13.275648</EPOCH><MEAN_MOTION>14.35219422</MEAN_MOTION><ECCENTRICITY>.0041874</ECCENTRICITY><INCLINATION>107.9637</INCLINATION><RA_OF_ASC_NODE>123.1316</RA_OF_ASC_NODE><ARG_OF_PERICENTER>310.3289</ARG_OF_PERICENTER><MEAN_ANOMALY>49.4196</MEAN_ANOMALY></meanElements><tleParameters><EPHEMERIS_TYPE>0</EPHEMERIS_TYPE><CLASSIFICATION_TYPE>U</CLASSIFICATION_TYPE><NORAD_CAT_ID>25159</NORAD_CAT_ID><ELEMENT_SET_NO>999</ELEMENT_SET_NO><REV_AT_EPOCH>44825</REV_AT_EPOCH><BSTAR>.50281E-3</BSTAR><MEAN_MOTION_DOT>.1322E-4</MEAN_MOTION_DOT><MEAN_MOTION_DDOT>0</MEAN_MOTION_DDOT></tleParameters></data></segment></body></omm>
<omm id="CCSDS_OMM_VERS" version="2.0">
<header><CREATION_DATE/><ORIGINATOR/></header><body><segment><metadata><OBJECT_NAME>ORBCOMM FM17</OBJECT_NAME><OBJECT_ID>1998-046A</OBJECT_ID><CENTER_NAME>EARTH</CENTER_NAME><REF_FRAME>TEME</REF_FRAME><TIME_SYSTEM>UTC</TIME_SYSTEM><MEAN_ELEMENT_THEORY>SGP4</MEAN_ELEMENT_THEORY></metadata><data><meanElements><EPOCH>2025-12-01T07:32:35.465568</EPOCH><MEAN_MOTION>14.35496847</MEAN_MOTION><ECCENTRICITY>.00029112</ECCENTRICITY><INCLINATION>44.9925</INCLINATION><RA_OF_ASC_NODE>188.6357</RA_OF_ASC_NODE><ARG_OF_PERICENTER>345.9034</ARG_OF_PERICENTER><MEAN_ANOMALY>14.1731</MEAN_ANOMALY></meanElements><tleParameters><EPHEMERIS_TYPE>0</EPHEMERIS_TYPE><CLASSIFICATION_TYPE>U</CLASSIFICATION_TYPE><NORAD_CAT_ID>25413</NORAD_CAT_ID><ELEMENT_SET_NO>999</ELEMENT_SET_NO><REV_AT_EPOCH>42718</REV_AT_EPOCH><BSTAR>.34591005E-3</BSTAR><MEAN_MOTION_DOT>.863E-5</MEAN_MOTION_DOT><MEAN_MOTION_DDOT>0</MEAN_MOTION_DDOT></tleParameters></data></segment></body></omm>
<omm id="CCSDS_OMM_VERS" version="2.0">
<header><CREATION_DATE/><ORIGINATOR/></header><body><segment><metadata><OBJECT_NAME>ORBCOMM FM18</OBJECT_NAME><OBJECT_ID>1998-046B</OBJECT_ID><CENTER_NAME>EARTH</CENTER_NAME><REF_FRAME>TEME</REF_FRAME><TIME_SYSTEM>UTC</TIME_SYSTEM><MEAN_ELEMENT_THEORY>SGP4</MEAN_ELEMENT_THEORY></metadata><data><meanElements><EPOCH>2025-12-01T18:13:37.623072</EPOCH><MEAN_MOTION>14.39095652</MEAN_MOTION><ECCENTRICITY>.0003303</ECCENTRICITY><INCLINATION>44.9921</INCLINATION><RA_OF_ASC_NODE>99.3747</RA_OF_ASC_NODE><ARG_OF_PERICENTER>60.5599</ARG_OF_PERICENTER><MEAN_ANOMALY>299.5578</MEAN_ANOMALY></meanElements><tleParameters><EPHEMERIS_TYPE>0</EPHEMERIS_TYPE><CLASSIFICATION_TYPE>U</CLASSIFICATION_TYPE><NORAD_CAT_ID>25414</NORAD_CAT_ID><ELEMENT_SET_NO>999</ELEMENT_SET_NO><REV_AT_EPOCH>42838</REV_AT_EPOCH><BSTAR>.55266E-3</BSTAR><MEAN_MOTION_DOT>.1583E-4</MEAN_MOTION_DOT><MEAN_MOTION_DDOT>0</MEAN_MOTION_DDOT></tleParameters></data></segment></body></omm>
<omm id="CCSDS_OMM_VERS" version="2.0">
<header><CREATION_DATE/><ORIGINATOR/></header><body><segment><metadata><OBJECT_NAME>ORBCOMM FM19</OBJECT_NAME><OBJECT_ID>1998-046C</OBJECT_ID><CENTER_NAME>EARTH</CENTER_NAME><REF_FRAME>TEME</REF_FRAME><TIME_SYSTEM>UTC</TIME_SYSTEM><MEAN_ELEMENT_THEORY>SGP4</MEAN_ELEMENT_THEORY></metadata><data><meanElements><EPOCH>2025-12-01T09:18:08.239104</EPOCH><MEAN_MOTION>14.38915284</MEAN_MOTION><ECCENTRICITY>.00021008</ECCENTRICITY><INCLINATION>44.9931</INCLINATION><RA_OF_ASC_NODE>103.3970</RA_OF_ASC_NODE><ARG_OF_PERICENTER>57.1307</ARG_OF_PERICENTER><MEAN_ANOMALY>337.4662</MEAN_ANOMALY></meanElements><tleParameters><EPHEMERIS_TYPE>0</EPHEMERIS_TYPE><CLASSIFICATION_TYPE>U</CLASSIFICATION_TYPE><NORAD_CAT_ID>25415</NORAD_CAT_ID><ELEMENT_SET_NO>999</ELEMENT_SET_NO><REV_AT_EPOCH>42828</REV_AT_EPOCH><BSTAR>.58843248E-3</BSTAR><MEAN_MOTION_DOT>.1688E-4</MEAN_MOTION_DOT><MEAN_MOTION_DDOT>0</MEAN_MOTION_DDOT></tleParameters></data></segment></body></omm>

</ndm>
