ORBCOMM FM05            
1 25117U 97084F   25335.59270215  .00001934  00000+0  57033-3 0  9990
2 25117  45.0145 283.9065 0004003 330.2303  29.8321 14.46637772464849
ORBCOMM FM06            
1 25118U 97084G   25335.60029009  .00002087  00000+0  61029-3 0  9996
2 25118  45.0138 283.4087 0002943 326.0081 203.3853 14.46798282465763
ORBCOMM FM07            
1 25119U 97084H   25335.23500131  .00002186  00000+0  63724-3 0  9990
2 25119  45.0133 285.9167 0004869 327.6818  32.3735 14.46808228465704
ORBCOMM FM04            
1 25159U 98007C   25335.69807032  .00001322  00000+0  50281-3 0  9995
2 25159 107.9637 123.1316 0041874 310.3289  49.4196 14.35219422448253
ORBCOMM FM17            
1 25413U 98046A   25335.31429936  .00000863  00000+0  34591-3 0  9998
2 25413  44.9925 188.6357 0002911 345.9034  14.1731 14.35496847427189
ORBCOMM FM18            
1 25414U 98046B   25335.75946323  .00001583  00000+0  55266-3 0  9993
2 25414  44.9921  99.3747 0003303  60.5599 299.5578 14.39095652428383
ORBCOMM FM19            
1 25415U 98046C   25335.38759536  .00001688  00000+0  58843-3 0  9991
2 25415  44.9931 103.3970 0002101  57.1307 337.4662 14.38915284428289
